{"type": "FeatureCollection", "features": [ {"type": "Feature", "properties": {"norad_id": 66455, "name": "ATLAS 5 CENTAUR R/B", "group": "last-30-days", "lat": -1.8535637981084399, "lon": -85.72668894044419, "alt_km": 22911.663098567315, "timestamp": "2025-12-11T20:41:13.846118+00:00", "meta": {"OBJECT_NAME": "ATLAS 5 CENTAUR R/B", "OBJECT_ID": "2025-261B", "EPOCH": "2025-12-11T15:16:36.105600", "MEAN_MOTION": 2.28259842, "ECCENTRICITY": 0.23294675, "INCLINATION": 6.1471, "RA_OF_ASC_NODE": 291.7267, "ARG_OF_PERICENTER": 186.2623, "MEAN_ANOMALY": 318.1786, "EPHEMERIS_TYPE": 0, "CLASSIFICATION_TYPE": "U", "NORAD_CAT_ID": 66455, "ELEMENT_SET_NO": 999, "REV_AT_EPOCH": 62, "BSTAR": 0, "MEAN_MOTION_DOT": -7.8e-07, "MEAN_MOTION_DDOT": 0}, "tle": {"line1": "1 66455U 25261B   25345.63652900 -.00000078  00000+0  00000+0 0  9996", "line2": "2 66455   6.1471 291.7267 2329467 186.2623 318.1786  2.28259842   626"}}, "geometry": {"type": "Point", "coordinates": [-85.72668894044419, -1.8535637981084399]}}, {"type": "Feature", "properties": {"norad_id": 66456, "name": "STARLINK-35643", "group": "last-30-days", "lat": -27.824021441680973, "lon": 42.173856820970954, "alt_km": 445.9557729369735, "timestamp": "2025-12-11T20:41:13.846129+00:00", "meta": {"OBJECT_NAME": "STARLINK-35643", "OBJECT_ID": "2025-262A", "EPOCH": "2025-12-11T14:00:01.999872", "MEAN_MOTION": 15.40559128, "ECCENTRICITY": 0.00014783, "INCLINATION": 43, "RA_OF_ASC_NODE": 78.2771, "ARG_OF_PERICENTER": 292.7962, "MEAN_ANOMALY": 277.0235, "EPHEMERIS_TYPE": 0, "CLASSIFICATION_TYPE": "U", "NORAD_CAT_ID": 66456, "ELEMENT_SET_NO": 999, "REV_AT_EPOCH": 545, "BSTAR": 0.0020671847, "MEAN_MOTION_DOT": 0.00086628, "MEAN_MOTION_DDOT": 0}, "tle": {"line1": "1 66456U 25262A   25345.58335648  .00086628  00000+0  20672-2 0  9993", "line2": "2 66456  43.0000  78.2771 0001478 292.7962 277.0235 15.40559128  5455"}}, "geometry": {"type": "Point", "coordinates": [42.173856820970954, -27.824021441680973]}}, {"type": "Feature", "properties": {"norad_id": 66457, "name": "STARLINK-35466", "group": "last-30-days", "lat": -12.375023424578533, "lon": 62.99322788123006, "alt_km": 445.4730116511746, "timestamp": "2025-12-11T20:41:13.846140+00:00", "meta": {"OBJECT_NAME": "STARLINK-35466", "OBJECT_ID": "2025-262B", "EPOCH": "2025-12-11T14:00:01.999872", "MEAN_MOTION": 15.40781809, "ECCENTRICITY": 0.00010785, "INCLINATION": 42.9997, "RA_OF_ASC_NODE": 78.2176, "ARG_OF_PERICENTER": 247.8631, "MEAN_ANOMALY": 346.7267, "EPHEMERIS_TYPE": 0, "CLASSIFICATION_TYPE": "U", "NORAD_CAT_ID": 66457, "ELEMENT_SET_NO": 999, "REV_AT_EPOCH": 545, "BSTAR": -0.0061927042, "MEAN_MOTION_DOT": -0.00251328, "MEAN_MOTION_DDOT": 0}, "tle": {"line1": "1 66457U 25262B   25345.58335648 -.00251328  00000+0 -61927-2 0  9995", "line2": "2 66457  42.9997  78.2176 0001078 247.8631 346.7267 15.40781809  5450"}}, "geometry": {"type": "Point", "coordinates": [62.99322788123006, -12.375023424578533]}}, {"type": "Feature", "properties": {"norad_id": 66458, "name": "STARLINK-35684", "group": "last-30-days", "lat": -20.393054887907173, "lon": 53.12839571607729, "alt_km": 446.08593425891286, "timestamp": "2025-12-11T20:41:13.846150+00:00", "meta": {"OBJECT_NAME": "STARLINK-35684", "OBJECT_ID": "2025-262C", "EPOCH": "2025-12-11T14:00:01.999872", "MEAN_MOTION": 15.40814049, "ECCENTRICITY": 9.244e-05, "INCLINATION": 42.9998, "RA_OF_ASC_NODE": 78.2468, "ARG_OF_PERICENTER": 247.6399, "MEAN_ANOMALY": 334.5094, "EPHEMERIS_TYPE": 0, "CLASSIFICATION_TYPE": "U", "NORAD_CAT_ID": 66458, "ELEMENT_SET_NO": 999, "REV_AT_EPOCH": 545, "BSTAR": -0.0073971895, "MEAN_MOTION_DOT": -0.00298636, "MEAN_MOTION_DDOT": 0}, "tle": {"line1": "1 66458U 25262C   25345.58335648 -.00298636  00000+0 -73972-2 0  9992", "line2": "2 66458  42.9998  78.2468 0000924 247.6399 334.5094 15.40814049  5450"}}, "geometry": {"type": "Point", "coordinates": [53.12839571607729, -20.393054887907173]}}, {"type": "Feature", "properties": {"norad_id": 66459, "name": "STARLINK-35449", "group": "last-30-days", "lat": -4.018708852903236, "lon": 72.25625001054776, "alt_km": 444.1139872936719, "timestamp": "2025-12-11T20:41:13.846161+00:00", "meta": {"OBJECT_NAME": "STARLINK-35449", "OBJECT_ID": "2025-262D", "EPOCH": "2025-12-11T14:00:01.999872", "MEAN_MOTION": 15.40563139, "ECCENTRICITY": 0.00015149, "INCLINATION": 43.0003, "RA_OF_ASC_NODE": 78.1856, "ARG_OF_PERICENTER": 290.496, "MEAN_ANOMALY": 316.6405, "EPHEMERIS_TYPE": 0, "CLASSIFICATION_TYPE": "U", "NORAD_CAT_ID": 66459, "ELEMENT_SET_NO": 999, "REV_AT_EPOCH": 545, "BSTAR": 0.0019684807, "MEAN_MOTION_DOT": 0.00082442, "MEAN_MOTION_DDOT": 0}, "tle": {"line1": "1 66459U 25262D   25345.58335648  .00082442  00000+0  19685-2 0  9998", "line2": "2 66459  43.0003  78.1856 0001514 290.4960 316.6405 15.40563139  5454"}}, "geometry": {"type": "Point", "coordinates": [72.25625001054776, -4.018708852903236]}}, {"type": "Feature", "properties": {"norad_id": 66460, "name": "STARLINK-35424", "group": "last-30-days", "lat": 4.4119723497518235, "lon": 81.29874647767663, "alt_km": 443.3921330504945, "timestamp": "2025-12-11T20:41:13.846171+00:00", "meta": {"OBJECT_NAME": "STARLINK-35424", "OBJECT_ID": "2025-262E", "EPOCH": "2025-12-11T14:00:01.999872", "MEAN_MOTION": 15.40641564, "ECCENTRICITY": 0.00012412, "INCLINATION": 43, "RA_OF_ASC_NODE": 78.1551, "ARG_OF_PERICENTER": 268.7887, "MEAN_ANOMALY": 350.6552, "EPHEMERIS_TYPE": 0, "CLASSIFICATION_TYPE": "U", "NORAD_CAT_ID": 66460, "ELEMENT_SET_NO": 999, "REV_AT_EPOCH": 545, "BSTAR": 0.0013421463, "MEAN_MOTION_DOT": 0.00056065, "MEAN_MOTION_DDOT": 0}, "tle": {"line1": "1 66460U 25262E   25345.58335648  .00056065  00000+0  13421-2 0  9994", "line2": "2 66460  43.0000  78.1551 0001241 268.7887 350.6552 15.40641564  5458"}}, "geometry": {"type": "Point", "coordinates": [81.29874647767663, 4.4119723497518235]}}, {"type": "Feature", "properties": {"norad_id": 66461, "name": "STARLINK-35132", "group": "last-30-days", "lat": 12.81724374741073, "lon": 90.65022506878086, "alt_km": 441.9267438886318, "timestamp": "2025-12-11T20:41:13.846184+00:00", "meta": {"OBJECT_NAME": "STARLINK-35132", "OBJECT_ID": "2025-262F", "EPOCH": "2025-12-11T14:00:01.999872", "MEAN_MOTION": 15.40556535, "ECCENTRICITY": 0.00017561, "INCLINATION": 43.0002, "RA_OF_ASC_NODE": 78.1244, "ARG_OF_PERICENTER": 303.6255, "MEAN_ANOMALY": 328.3919, "EPHEMERIS_TYPE": 0, "CLASSIFICATION_TYPE": "U", "NORAD_CAT_ID": 66461, "ELEMENT_SET_NO": 999, "REV_AT_EPOCH": 545, "BSTAR": 0.0024317282, "MEAN_MOTION_DOT": 0.00102159, "MEAN_MOTION_DDOT": 0}, "tle": {"line1": "1 66461U 25262F   25345.58335648  .00102159  00000+0  24317-2 0  9997", "line2": "2 66461  43.0002  78.1244 0001756 303.6255 328.3919 15.40556535  5451"}}, "geometry": {"type": "Point", "coordinates": [90.65022506878086, 12.81724374741073]}}, {"type": "Feature", "properties": {"norad_id": 66462, "name": "STARLINK-35499", "group": "last-30-days", "lat": 20.84463165572873, "lon": 100.60405564804553, "alt_km": 441.07748448001985, "timestamp": "2025-12-11T20:41:13.846195+00:00", "meta": {"OBJECT_NAME": "STARLINK-35499", "OBJECT_ID": "2025-262G", "EPOCH": "2025-12-11T14:00:01.999872", "MEAN_MOTION": 15.40578081, "ECCENTRICITY": 0.00011052, "INCLINATION": 43.0003, "RA_OF_ASC_NODE": 78.093, "ARG_OF_PERICENTER": 294.6826, "MEAN_ANOMALY": 349.7953, "EPHEMERIS_TYPE": 0, "CLASSIFICATION_TYPE": "U", "NORAD_CAT_ID": 66462, "ELEMENT_SET_NO": 999, "REV_AT_EPOCH": 545, "BSTAR": 0.001453706, "MEAN_MOTION_DOT": 0.00060659, "MEAN_MOTION_DDOT": 0}, "tle": {"line1": "1 66462U 25262G   25345.58335648  .00060659  00000+0  14537-2 0  9999", "line2": "2 66462  43.0003  78.0930 0001105 294.6826 349.7953 15.40578081  5450"}}, "geometry": {"type": "Point", "coordinates": [100.60405564804553, 20.84463165572873]}}, {"type": "Feature", "properties": {"norad_id": 66463, "name": "STARLINK-35463", "group": "last-30-days", "lat": 34.5064456469347, "lon": 123.96340767578702, "alt_km": 439.4466095566868, "timestamp": "2025-12-11T20:41:13.846208+00:00", "meta": {"OBJECT_NAME": "STARLINK-35463", "OBJECT_ID": "2025-262H", "EPOCH": "2025-12-11T14:00:01.999872", "MEAN_MOTION": 15.40633339, "ECCENTRICITY": 0.00013378, "INCLINATION": 43.0007, "RA_OF_ASC_NODE": 78.0332, "ARG_OF_PERICENTER": 262.8033, "MEAN_ANOMALY": 46.3324, "EPHEMERIS_TYPE": 0, "CLASSIFICATION_TYPE": "U", "NORAD_CAT_ID": 66463, "ELEMENT_SET_NO": 999, "REV_AT_EPOCH": 545, "BSTAR": 0.0014360793, "MEAN_MOTION_DOT": 0.00060025, "MEAN_MOTION_DDOT": 0}, "tle": {"line1": "1 66463U 25262H   25345.58335648  .00060025  00000+0  14361-2 0  9992", "line2": "2 66463  43.0007  78.0332 0001337 262.8033  46.3324 15.40633339  5455"}}, "geometry": {"type": "Point", "coordinates": [123.96340767578702, 34.5064456469347]}}, {"type": "Feature", "properties": {"norad_id": 66464, "name": "STARLINK-35435", "group": "last-30-days", "lat": 28.213265003515836, "lon": 111.60737825733868, "alt_km": 440.4974207515688, "timestamp": "2025-12-11T20:41:13.846220+00:00", "meta": {"OBJECT_NAME": "STARLINK-35435", "OBJECT_ID": "2025-262J", "EPOCH": "2025-12-11T14:00:01.999872", "MEAN_MOTION": 15.40760838, "ECCENTRICITY": 0.00013818, "INCLINATION": 43.0005, "RA_OF_ASC_NODE": 78.0634, "ARG_OF_PERICENTER": 260.2673, "MEAN_ANOMALY": 36.5387, "EPHEMERIS_TYPE": 0, "CLASSIFICATION_TYPE": "U", "NORAD_CAT_ID": 66464, "ELEMENT_SET_NO": 999, "REV_AT_EPOCH": 545, "BSTAR": -0.0054475802, "MEAN_MOTION_DOT": -0.00221823, "MEAN_MOTION_DDOT": 0}, "tle": {"line1": "1 66464U 25262J   25345.58335648 -.00221823  00000+0 -54476-2 0  9991", "line2": "2 66464  43.0005  78.0634 0001381 260.2673  36.5387 15.40760838  5455"}}, "geometry": {"type": "Point", "coordinates": [111.60737825733868, 28.213265003515836]}}]}